NORAD_CAT_ID,OBJECT_NAME,OBJECT_TYPE,EPOCH,MEAN_MOTION,ECCENTRICITY,INCLINATION,RA_OF_ASC_NODE,ARG_OF_PERICENTER,MEAN_ANOMALY,BSTAR,MEAN_MOTION_DOT,MEAN_MOTION_DDOT,TLE_LINE0,TLE_LINE1,TLE_LINE2,SEMIMAJOR_AXIS,PERIOD,APOGEE,PERIGEE,DECAYED
49421.0,STARLINK-3112,PAYLOAD,2022-09-24 19:30:24,15.08841339,0.0001889,53.2167,133.9154,51.9237,308.1925,0.0001871,2.691e-05,0.0,0 STARLINK-3112,1 49421U 21104P   22267.81278887  .00002691  00000-0  18710-3 0  9994,2 49421  53.2167 133.9154 0001889  51.9237 308.1925 15.08841339 48120,6917.876,95.437,541.048,538.435,0.0
49421.0,STARLINK-3112,PAYLOAD,2022-09-24 22:41:11,15.08844257,0.0001924,53.2162,133.321,51.0185,309.0978,0.00020034,2.902e-05,0.0,0 STARLINK-3112,1 49421U 21104P   22267.94526748  .00002902  00000-0  20034-3 0  9997,2 49421  53.2162 133.3210 0001924  51.0185 309.0978 15.08844257 48147,6917.8669999999975,95.437,541.063,538.401,0.0
49421.0,STARLINK-3112,PAYLOAD,2022-09-25 19:21:11,15.08841905,0.0001923,53.2163,129.4553,52.0722,308.0443,0.00021247,3.095e-05,0.0,0 STARLINK-3112,1 49421U 21104P   22268.80638790  .00003095  00000-0  21247-3 0  9995,2 49421  53.2163 129.4553 0001923  52.0722 308.0443 15.08841905 48278,6917.875,95.437,541.07,538.409,0.0
49421.0,STARLINK-3112,PAYLOAD,2022-09-26 08:04:17,15.08831341,0.0001774999999999,53.2168,127.0757,52.8053,307.3101,-5.5993e-05,-1.179e-05,0.0,0 STARLINK-3112,1 49421U 21104P   22269.33631874 -.00001179  00000-0 -55993-4 0  9999,2 49421  53.2168 127.0757 0001775  52.8053 307.3101 15.08831341 49438,6917.906999999997,95.438,541.0,538.544,0.0
49421.0,STARLINK-3112,PAYLOAD,2022-09-26 20:47:22,15.08836032,0.0001865999999999,53.2164,124.6977,50.0168,310.0988,-3.4106e-05,-8.31e-06,0.0,0 STARLINK-3112,1 49421U 21104P   22269.86623728 -.00000831  00000-0 -34106-4 0  9993,2 49421  53.2164 124.6977 0001866  50.0168 310.0988 15.08836032 48434,6917.893,95.438,541.048,538.467,0.0
49421.0,STARLINK-3112,PAYLOAD,2022-09-27 01:33:32,15.08838839,0.0001904,53.2164,123.8056,50.6857,309.4303,-1.0044e-05,-4.48e-06,0.0,0 STARLINK-3112,1 49421U 21104P   22270.06495504 -.00000448  00000-0 -10044-4 0  9995,2 49421  53.2164 123.8056 0001904  50.6857 309.4303 15.08838839 49540,6917.884,95.438,541.066,538.432,0.0
49421.0,STARLINK-3112,PAYLOAD,2022-09-27 20:38:09,15.08839067,0.0001911,53.2164,120.2369,52.3567,307.7599,0.00021042,3.062e-05,0.0,0 STARLINK-3112,1 49421U 21104P   22270.85982735  .00003062  00000-0  21042-3 0  9991,2 49421  53.2164 120.2369 0001911  52.3567 307.7599 15.08839067 49668,6917.8830000000025,95.438,541.07,538.4259999999998,0.0
49421.0,STARLINK-3112,PAYLOAD,2022-09-27 23:48:55,15.08844112,0.000195,53.2164,119.6421,53.2385,306.8786,0.00026414,3.919e-05,0.0,0 STARLINK-3112,1 49421U 21104P   22270.99230521  .00003919  00000-0  26414-3 0  9994,2 49421  53.2164 119.6421 0001950  53.2385 306.8786 15.08844112 48608,6917.868,95.437,541.082,538.384,0.0
49421.0,STARLINK-3112,PAYLOAD,2022-09-28 20:28:56,15.08843464,0.0001996,53.2165,115.7762,55.16,304.958,0.00012651,1.726e-05,0.0,0 STARLINK-3112,1 49421U 21104P   22271.85342904  .00001726  00000-0  12651-3 0  9991,2 49421  53.2165 115.7762 0001996  55.1600 304.9580 15.08843464 48739,6917.87,95.437,541.116,538.354,0.0
49421.0,STARLINK-3112,PAYLOAD,2022-09-29 13:58:12,15.08832502,0.0001934,53.2166,112.5068,57.1974,302.9204,-0.00016085,-2.847e-05,0.0,0 STARLINK-3112,1 49421U 21104P   22272.58208714 -.00002847  00000-0 -16085-3 0  9994,2 49421  53.2166 112.5068 0001934  57.1974 302.9204 15.08832502 49926,6917.903,95.438,541.106,538.43,0.0
49421.0,STARLINK-3112,PAYLOAD,2022-09-30 12:13:33,15.08914315,0.0001583,53.2162,108.3409,31.619,328.4897,-0.0012709,-0.00020499,0.0,0 STARLINK-3112,1 49421U 21104P   22273.50941170 -.00020499  00000-0 -12709-2 0  9998,2 49421  53.2162 108.3409 0001583  31.6190 328.4897 15.08914315 48980,6917.653,95.433,540.613,538.423,0.0
49421.0,STARLINK-3112,PAYLOAD,2022-09-30 20:10:31,15.08833294,0.0001678,53.2158,106.8555,46.2972,313.8159,6.9578e-05,8.19e-06,0.0,0 STARLINK-3112,1 49421U 21104P   22273.84064466  .00000819  00000-0  69578-4 0  9999,2 49421  53.2158 106.8555 0001678  46.2972 313.8159 15.08833294 49037,6917.901,95.438,540.927,538.605,0.0
49421.0,STARLINK-3112,PAYLOAD,2022-10-01 00:56:40,15.08832557,0.0001759,53.2164,105.9627,47.9631,312.151,0.00020195,2.927e-05,0.0,0 STARLINK-3112,1 49421U 21104P   22274.03936300  .00002927  00000-0  20195-3 0  9999,2 49421  53.2164 105.9627 0001759  47.9631 312.1510 15.08832557 50142,6917.903,95.438,540.985,538.5509999999998,0.0
49421.0,STARLINK-3112,PAYLOAD,2022-10-01 13:39:45,15.08840523,0.0001751,53.2163,103.5838,48.3108,311.8034,0.00025135,3.715e-05,0.0,0 STARLINK-3112,1 49421U 21104P   22274.56928127  .00003715  00000-0  25135-3 0  9990,2 49421  53.2163 103.5838 0001751  48.3108 311.8034 15.08840523 49142,6917.879,95.438,540.955,538.5319999999998,0.0
49421.0,STARLINK-3112,PAYLOAD,2022-10-01 18:25:55,15.08847031,0.0001744,53.2167,102.6917,49.6232,310.4912,0.00031705,4.762e-05,0.0,0 STARLINK-3112,1 49421U 21104P   22274.76799859  .00004762  00000-0  31705-3 0  9993,2 49421  53.2167 102.6917 0001744  49.6232 310.4912 15.08847031 50253,6917.859,95.437,540.93,538.5169999999998,0.0
49421.0,STARLINK-3112,PAYLOAD,2022-10-01 20:01:18,15.08850894,0.000179,53.2158,102.3943,49.2153,310.8994,0.00041028,6.25e-05,0.0,0 STARLINK-3112,1 49421U 21104P   22274.83424072  .00006250  00000-0  41028-3 0  9996,2 49421  53.2158 102.3943 0001790  49.2153 310.8994 15.08850894 49183,6917.847,95.437,540.95,538.474,0.0
49421.0,STARLINK-3112,PAYLOAD,2022-10-02 05:33:37,15.08843459,0.0001884,53.2158,100.6101,50.4182,309.6976,0.00016969,2.414e-05,0.0,0 STARLINK-3112,1 49421U 21104P   22275.23168399  .00002414  00000-0  16969-3 0  9992,2 49421  53.2158 100.6101 0001884  50.4182 309.6976 15.08843459 50323,6917.87,95.437,541.038,538.431,0.0
49421.0,STARLINK-3112,PAYLOAD,2022-10-02 19:52:06,15.08835671,0.0001896,53.2158,97.9339,46.6128,313.5022,2.5105e-05,1.11e-06,0.0,0 STARLINK-3112,1 49421U 21104P   22275.82784891  .00000111  00000-0  25105-4 0  9993,2 49421  53.2158  97.9339 0001896  46.6128 313.5022 15.08835671 50417,6917.894,95.438,541.07,538.447,0.0
49421.0,STARLINK-3112,PAYLOAD,2022-10-03 11:45:57,15.08847622,0.0001833,53.2165,94.9597,50.4948,309.6206,7.026e-05,8.3e-06,0.0,0 STARLINK-3112,1 49421U 21104P   22276.49024448  .00000830  00000-0  70260-4 0  9992,2 49421  53.2165  94.9597 0001833  50.4948 309.6206 15.08847622 49431,6917.857,95.437,540.99,538.4540000000002,0.0
49421.0,STARLINK-3112,PAYLOAD,2022-10-03 19:42:51,15.08858885,0.0001883,53.2166,93.473,51.8104,308.3057,0.00011286,1.509e-05,0.0,0 STARLINK-3112,1 49421U 21104P   22276.82143489  .00001509  00000-0  11286-3 0  9992,2 49421  53.2166  93.4730 0001883  51.8104 308.3057 15.08858885 50568,6917.823,95.436,540.99,538.385,0.0
49421.0,STARLINK-3112,PAYLOAD,2022-10-04 05:15:10,15.08858295,0.0001936,53.216,91.689,50.5642,309.5522,0.00030888,4.634e-05,0.0,0 STARLINK-3112,1 49421U 21104P   22277.21887575  .00004634  00000-0  30888-3 0  9998,2 49421  53.2160  91.6890 0001936  50.5642 309.5522 15.08858295 49542,6917.824000000001,95.436,541.029,538.35,0.0
49421.0,STARLINK-3112,PAYLOAD,2022-10-04 17:58:15,15.08853347,0.000195,53.216,89.3098,52.3622,307.7547,0.00030142,4.514e-05,0.0,0 STARLINK-3112,1 49421U 21104P   22277.74879603  .00004514  00000-0  30142-3 0  9999,2 49421  53.2160  89.3098 0001950  52.3622 307.7547 15.08853347 50700,6917.84,95.437,541.054,538.356,0.0
49421.0,STARLINK-3112,PAYLOAD,2022-10-04 19:33:39,15.08850509,0.0001715,53.2163,89.0118,53.1932,306.9217,0.00021704,3.169e-05,0.0,0 STARLINK-3112,1 49421U 21104P   22277.81503620  .00003169  00000-0  21704-3 0  9999,2 49421  53.2163  89.0118 0001715  53.1932 306.9217 15.08850509 49637,6917.848000000001,95.437,540.9,538.5269999999998,0.0
49421.0,STARLINK-3112,PAYLOAD,2022-10-05 05:05:58,15.08844115,0.0001816,53.2163,87.228,50.8715,309.2439,7.622899999999999e-05,9.25e-06,0.0,0 STARLINK-3112,1 49421U 21104P   22278.21247758  .00000925  00000-0  76229-4 0  9991,2 49421  53.2163  87.2280 0001816  50.8715 309.2439 15.08844115 50777,6917.868,95.437,540.989,538.477,0.0
49421.0,STARLINK-3112,PAYLOAD,2022-10-05 11:27:30,15.08841119,0.0001629999999999,53.2171,86.0391,46.0589,314.0537,4.0836e-05,3.62e-06,0.0,0 STARLINK-3112,1 49421U 21104P   22278.47743910  .00000362  00000-0  40836-4 0  9990,2 49421  53.2171  86.0391 0001630  46.0589 314.0537 15.08841119 49734,6917.877,95.437,540.87,538.614,0.0
49421.0,STARLINK-3112,PAYLOAD,2022-10-05 17:49:03,15.08842992,0.0001884,53.2175,84.85,50.4739,309.642,7.8587e-06,-1.63e-06,0.0,0 STARLINK-3112,1 49421U 21104P   22278.74239861 -.00000163  00000-0  78587-5 0  9990,2 49421  53.2175  84.8500 0001884  50.4739 309.6420 15.08842992 49778,6917.871,95.437,541.04,538.433,0.0
49421.0,STARLINK-3112,PAYLOAD,2022-10-06 11:18:17,15.08844306,0.0001716,53.2177,81.5792,49.8589,310.2553,-8.8888e-05,-1.703e-05,0.0,0 STARLINK-3112,1 49421U 21104P   22279.47103742 -.00001703  00000-0 -88888-4 0  9995,2 49421  53.2177  81.5792 0001716  49.8589 310.2553 15.08844306 49884,6917.8669999999975,95.437,540.919,538.545,0.0
49421.0,STARLINK-3112,PAYLOAD,2022-10-06 17:39:49,15.08847599,0.0001658,53.2177,80.3882,37.5509,322.5598,7.0475e-05,8.34e-06,0.0,0 STARLINK-3112,1 49421U 21104P   22279.73599133  .00000834  00000-0  70475-4 0  9992,2 49421  53.2177  80.3882 0001658  37.5509 322.5598 15.08847599 49929,6917.857,95.437,540.869,538.575,0.0
49421.0,STARLINK-3112,PAYLOAD,2022-10-06 20:50:36,15.08842184,0.000184,53.2184,79.7948,46.3914,313.7231,0.00011361,1.521e-05,0.0,0 STARLINK-3112,1 49421U 21104P   22279.86847290  .00001521  00000-0  11361-3 0  9998,2 49421  53.2184  79.7948 0001840  46.3914 313.7231 15.08842184 51028,6917.874,95.437,541.012,538.466,0.0
